{
  "fetched_at": "2026-05-06T13:27:42.888390+00:00",
  "satellites": {
    "57166": {
      "name": "Meteor M2-3",
      "tle_line1": "1 57166U 23091A   26126.29235637  .00000000  00000+0  19050-4 0  9992",
      "tle_line2": "2 57166  98.6109 182.1210 0002837 300.6444  59.4455 14.24043217148559"
    },
    "59051": {
      "name": "Meteor M2-4",
      "tle_line1": "1 59051U 24039A   26126.25952377  .00000028  00000+0  32100-4 0  9994",
      "tle_line2": "2 59051  98.6987  86.0916 0006042 296.2380  63.8176 14.22425164113301"
    },
    "38771": {
      "name": "MetOp-B",
      "tle_line1": "1 38771U 12049A   26126.23621997  .00000100  00000+0  65750-4 0  9995",
      "tle_line2": "2 38771  98.6535 178.5656 0003573 104.9402 255.2171 14.21436268707307"
    },
    "43689": {
      "name": "MetOp-C",
      "tle_line1": "1 43689U 18087A   26126.18736723  .00000099  00000+0  65129-4 0  9992",
      "tle_line2": "2 43689  98.6667 186.5528 0000370  54.4060 305.7152 14.21500573388862"
    },
    "60543": {
      "name": "Arctic Weather Satellite",
      "tle_line1": "1 60543U 24149CD  26126.17577544  .00000778  00000+0  86744-4 0  9999",
      "tle_line2": "2 60543  97.6810 197.8385 0001035 206.7253 153.3911 14.89786809 93045"
    }
  }
}